{
  "norad_id": 55577,
  "name": "STARLINK-5752",
  "history": [
    {
      "epoch": "2026-03-28T20:43:39.718560Z",
      "apogee_km": 486.5166422691509,
      "perigee_km": 484.6483378239609,
      "latitude_deg": -1.3679805248659194e-05,
      "longitude_deg": 119.79149912455192,
      "height_km": 485.1262417573941,
      "semi_major_axis_km": 6863.719490046556,
      "eccentricity": 0.0001361,
      "inclination_deg": 42.9997,
      "raan_deg": 256.985,
      "arg_perigee_deg": 284.4413,
      "mean_anomaly_deg": 75.6287,
      "mean_motion_rev_day": 15.26734335
    }
  ]
}